
# Worst residual: 11.31 km
# MJD 58877.000000 (2020 Jan 29  0:00)
1967-040F = NORAD 02770 = Transtage 10
1 02770U 67040F   20029.49919926  .00000000  00000-0  00000-0 0  9535
2 02770 042.0683 341.3151 8284589 169.8204 101.0736 00.50936168    09

# Worst residual: 6.43 km
# MJD 58878.000000 (2020 Jan 30  0:00)
1967-040F = NORAD 02770 = Transtage 10
1 02770U 67040F   20030.49919926  .00000000  00000-0  00000-0 0  9537
2 02770 042.0356 341.3029 8282726 169.8367 284.4520 00.50930477    05

# Worst residual: 7.57 km
# MJD 58879.000000 (2020 Jan 31  0:00)
1967-040F = NORAD 02770 = Transtage 10
1 02770U 67040F   20031.49919926  .00000000  00000-0  00000-0 0  9538
2 02770 042.0227 341.2732 8282329 169.8809 107.7951 00.50940087    05

# Worst residual: 4.37 km
# MJD 58880.000000 (2020 Feb  1  0:00)
1967-040F = NORAD 02770 = Transtage 10
1 02770U 67040F   20032.49919926  .00000000  00000-0  00000-0 0  9539
2 02770 042.0120 341.2549 8281806 169.8967 291.2088 00.50939031    04

# Worst residual: 3.77 km
# MJD 58881.000000 (2020 Feb  2  0:00)
1967-040F = NORAD 02770 = Transtage 10
1 02770U 67040F   20033.49919926  .00000000  00000-0  00000-0 0  9530
2 02770 042.0002 341.2241 8282272 169.9343 114.5626 00.50943124    02

# Worst residual: 3.69 km
# MJD 58882.000000 (2020 Feb  3  0:00)
1967-040F = NORAD 02770 = Transtage 10
1 02770U 67040F   20034.49919926  .00000000  00000-0  00000-0 0  9531
2 02770 042.0005 341.2041 8282934 169.9578 297.9555 00.50943051    04

# Worst residual: 4.30 km
# MJD 58883.000000 (2020 Feb  4  0:00)
1967-040F = NORAD 02770 = Transtage 10
1 02770U 67040F   20035.49919926  .00000000  00000-0  00000-0 0  9532
2 02770 041.9884 341.1753 8283857 169.9965 121.3053 00.50943155    09

# Worst residual: 5.26 km
# MJD 58884.000000 (2020 Feb  5  0:00)
1967-040F = NORAD 02770 = Transtage 10
1 02770U 67040F   20036.49919926  .00000000  00000-0  00000-0 0  9533
2 02770 041.9853 341.1565 8284543 170.0264 304.6694 00.50939836    02

# Worst residual: 3.95 km
# MJD 58885.000000 (2020 Feb  6  0:00)
1967-040F = NORAD 02770 = Transtage 10
1 02770U 67040F   20037.49919926  .00000000  00000-0  00000-0 0  9534
2 02770 041.9710 341.1307 8285136 170.0680 128.0123 00.50941161    08

# Worst residual: 10.32 km
# MJD 58886.000000 (2020 Feb  7  0:00)
1967-040F = NORAD 02770 = Transtage 10
1 02770U 67040F   20038.49919926  .00000000  00000-0  00000-0 0  9535
2 02770 041.9631 341.1132 8285279 170.0957 311.3755 00.50928441    05

# Worst residual: 2.24 km
# MJD 58887.000000 (2020 Feb  8  0:00)
1967-040F = NORAD 02770 = Transtage 10
1 02770U 67040F   20039.49919926  .00000000  00000-0  00000-0 0  9536
2 02770 041.9465 341.0886 8284934 170.1414 134.7125 00.50937209    01

# Worst residual: 12.86 km
# MJD 58888.000000 (2020 Feb  9  0:00)
1967-040F = NORAD 02770 = Transtage 10
1 02770U 67040F   20040.49919926  .00000000  00000-0  00000-0 0  9538
2 02770 041.9419 341.0702 8285293 170.1663 318.0873 00.50920656    07

# Worst residual: 3.22 km
# MJD 58889.000000 (2020 Feb 10  0:00)
1967-040F = NORAD 02770 = Transtage 10
1 02770U 67040F   20041.49919926  .00000000  00000-0  00000-0 0  9539
2 02770 041.9248 341.0455 8284264 170.2116 141.4274 00.50934450    03

# Worst residual: 9.87 km
# MJD 58890.000000 (2020 Feb 11  0:00)
1967-040F = NORAD 02770 = Transtage 10
1 02770U 67040F   20042.49919926  .00000000  00000-0  00000-0 0  9530
2 02770 041.9290 341.0241 8285157 170.2392 324.7922 00.50924979    02

# Worst residual: 3.88 km
# MJD 58891.000000 (2020 Feb 12  0:00)
1967-040F = NORAD 02770 = Transtage 10
1 02770U 67040F   20043.49919926  .00000000  00000-0  00000-0 0  9531
2 02770 041.9127 340.9995 8284336 170.2827 148.1427 00.50935571    04

# Worst residual: 5.04 km
# MJD 58892.000000 (2020 Feb 13  0:00)
1967-040F = NORAD 02770 = Transtage 10
1 02770U 67040F   20044.49919926  .00000000  00000-0  00000-0 0  9532
2 02770 041.9189 340.9769 8285065 170.3173 331.4760 00.50938796    05

# Worst residual: 2.16 km
# MJD 58893.000000 (2020 Feb 14  0:00)
1967-040F = NORAD 02770 = Transtage 10
1 02770U 67040F   20045.49919926  .00000000  00000-0  00000-0 0  9533
2 02770 041.9009 340.9528 8284905 170.3580 154.8370 00.50940822    00

# Worst residual: 4.39 km
# MJD 58894.000000 (2020 Feb 15  0:00)
1967-040F = NORAD 02770 = Transtage 10
1 02770U 67040F   20046.49919926  .00000000  00000-0  00000-0 0  9534
2 02770 041.8960 340.9305 8284319 170.3947 338.1563 00.50948049    04

# Worst residual: 1.68 km
# MJD 58895.000000 (2020 Feb 16  0:00)
1967-040F = NORAD 02770 = Transtage 10
1 02770U 67040F   20047.49919926  .00000000  00000-0  00000-0 0  9535
2 02770 041.8772 340.9069 8284815 170.4301 161.5249 00.50946867    03

# Worst residual: 4.92 km
# MJD 58896.000000 (2020 Feb 17  0:00)
1967-040F = NORAD 02770 = Transtage 10
1 02770U 67040F   20048.49919926  .00000000  00000-0  00000-0 0  9536
2 02770 041.8651 340.8850 8283392 170.4596 344.8804 00.50943199    09

# Worst residual: 1.98 km
# MJD 58897.000000 (2020 Feb 18  0:00)
1967-040F = NORAD 02770 = Transtage 10
1 02770U 67040F   20049.49919926  .00000000  00000-0  00000-0 0  9537
2 02770 041.8506 340.8578 8284605 170.4909 168.2421 00.50947380    00

# Worst residual: 7.71 km
# MJD 58898.000000 (2020 Feb 19  0:00)
1967-040F = NORAD 02770 = Transtage 10
1 02770U 67040F   20050.49919926  .00000000  00000-0  00000-0 0  9539
2 02770 041.8449 340.8354 8284610 170.5155 351.6489 00.50930401    06

# Worst residual: 2.27 km
# MJD 58899.000000 (2020 Feb 20  0:00)
1967-040F = NORAD 02770 = Transtage 10
1 02770U 67040F   20051.49919926  .00000000  00000-0  00000-0 0  9530
2 02770 041.8345 340.8070 8286130 170.5496 174.9723 00.50937500    07

# Worst residual: 12.74 km
# MJD 58900.000000 (2020 Feb 21  0:00)
1967-040F = NORAD 02770 = Transtage 10
1 02770U 67040F   20052.49919926  .00000000  00000-0  00000-0 0  9531
2 02770 041.8370 340.7845 8289087 170.5830 358.3733 00.50918587    03

# Worst residual: 3.21 km
# MJD 58901.000000 (2020 Feb 22  0:00)
1967-040F = NORAD 02770 = Transtage 10
1 02770U 67040F   20053.49919926  .00000000  00000-0  00000-0 0  9532
2 02770 041.8172 340.7633 8288918 170.6245 181.6646 00.50925231    05

# Worst residual: 13.22 km
# MJD 58902.000000 (2020 Feb 23  0:00)
1967-040F = NORAD 02770 = Transtage 10
1 02770U 67040F   20054.49919926  .00000000  00000-0  00000-0 0  9533
2 02770 041.8129 340.7394 8292274 170.6728 004.9976 00.50919212    02

# Worst residual: 3.86 km
# MJD 58903.000000 (2020 Feb 24  0:00)
1967-040F = NORAD 02770 = Transtage 10
1 02770U 67040F   20055.49919926  .00000000  00000-0  00000-0 0  9534
2 02770 041.7795 340.7263 8289925 170.7126 188.3264 00.50925574    02

# Worst residual: 12.72 km
# MJD 58904.000000 (2020 Feb 25  0:00)
1967-040F = NORAD 02770 = Transtage 10
1 02770U 67040F   20056.49919926  .00000000  00000-0  00000-0 0  9535
2 02770 041.7584 340.6998 8291115 170.7580 011.6269 00.50918599    02
